<?xml version="1.0" encoding="UTF-8"?>
<gpx version="1.1" creator="TranCity" xmlns="http://www.topografix.com/GPX/1/1">
<rte><name>L104 Unochapecó</name>
<rtept lat="-27.10647" lon="-52.61372"/>
<rtept lat="-27.10615" lon="-52.6138"/>
<rtept lat="-27.10597" lon="-52.61385"/>
<rtept lat="-27.10594" lon="-52.61386"/>
<rtept lat="-27.10543" lon="-52.614"/>
<rtept lat="-27.10537" lon="-52.61402"/>
<rtept lat="-27.10479" lon="-52.61422"/>
<rtept lat="-27.10478" lon="-52.61422"/>
<rtept lat="-27.10477" lon="-52.61422"/>
<rtept lat="-27.10476" lon="-52.61422"/>
<rtept lat="-27.10475" lon="-52.61422"/>
<rtept lat="-27.10474" lon="-52.61422"/>
<rtept lat="-27.10473" lon="-52.61422"/>
<rtept lat="-27.10472" lon="-52.61422"/>
<rtept lat="-27.10472" lon="-52.61423"/>
<rtept lat="-27.10471" lon="-52.61423"/>
<rtept lat="-27.10471" lon="-52.61424"/>
<rtept lat="-27.1047" lon="-52.61424"/>
<rtept lat="-27.1047" lon="-52.61425"/>
<rtept lat="-27.10456" lon="-52.61428"/>
<rtept lat="-27.10443" lon="-52.61431"/>
<rtept lat="-27.10425" lon="-52.61436"/>
<rtept lat="-27.10406" lon="-52.6144"/>
<rtept lat="-27.10398" lon="-52.61442"/>
<rtept lat="-27.10362" lon="-52.61452"/>
<rtept lat="-27.10349" lon="-52.61456"/>
<rtept lat="-27.10336" lon="-52.6146"/>
<rtept lat="-27.10318" lon="-52.61465"/>
<rtept lat="-27.103" lon="-52.61471"/>
<rtept lat="-27.10295" lon="-52.61473"/>
<rtept lat="-27.1029" lon="-52.61474"/>
<rtept lat="-27.10256" lon="-52.61483"/>
<rtept lat="-27.10222" lon="-52.61492"/>
<rtept lat="-27.10198" lon="-52.61498"/>
<rtept lat="-27.10173" lon="-52.61504"/>
<rtept lat="-27.10168" lon="-52.61505"/>
<rtept lat="-27.10163" lon="-52.61507"/>
<rtept lat="-27.1012" lon="-52.61519"/>
<rtept lat="-27.10078" lon="-52.61531"/>
<rtept lat="-27.10062" lon="-52.61535"/>
<rtept lat="-27.10045" lon="-52.61539"/>
<rtept lat="-27.10035" lon="-52.61542"/>
<rtept lat="-27.0996" lon="-52.61566"/>
<rtept lat="-27.09949" lon="-52.61569"/>
<rtept lat="-27.09917" lon="-52.61578"/>
<rtept lat="-27.09896" lon="-52.61584"/>
<rtept lat="-27.09856" lon="-52.61594"/>
<rtept lat="-27.0981" lon="-52.61607"/>
<rtept lat="-27.09803" lon="-52.61611"/>
<rtept lat="-27.09795" lon="-52.61615"/>
<rtept lat="-27.09795" lon="-52.61614"/>
<rtept lat="-27.09794" lon="-52.61614"/>
<rtept lat="-27.09794" lon="-52.61613"/>
<rtept lat="-27.09793" lon="-52.61613"/>
<rtept lat="-27.09792" lon="-52.61613"/>
<rtept lat="-27.09792" lon="-52.61612"/>
<rtept lat="-27.09791" lon="-52.61612"/>
<rtept lat="-27.0979" lon="-52.61612"/>
<rtept lat="-27.09789" lon="-52.61612"/>
<rtept lat="-27.09788" lon="-52.61612"/>
<rtept lat="-27.09787" lon="-52.61612"/>
<rtept lat="-27.09786" lon="-52.61613"/>
<rtept lat="-27.09785" lon="-52.61613"/>
<rtept lat="-27.09784" lon="-52.61614"/>
<rtept lat="-27.09783" lon="-52.61615"/>
<rtept lat="-27.09782" lon="-52.61615"/>
<rtept lat="-27.09782" lon="-52.61616"/>
<rtept lat="-27.09782" lon="-52.61617"/>
<rtept lat="-27.09781" lon="-52.61617"/>
<rtept lat="-27.09781" lon="-52.61618"/>
<rtept lat="-27.09781" lon="-52.61619"/>
<rtept lat="-27.09759" lon="-52.61624"/>
<rtept lat="-27.09738" lon="-52.61629"/>
<rtept lat="-27.09705" lon="-52.61637"/>
<rtept lat="-27.09671" lon="-52.61646"/>
<rtept lat="-27.09667" lon="-52.61647"/>
<rtept lat="-27.09664" lon="-52.61648"/>
<rtept lat="-27.09659" lon="-52.61649"/>
<rtept lat="-27.09655" lon="-52.6165"/>
<rtept lat="-27.09647" lon="-52.61652"/>
<rtept lat="-27.09612" lon="-52.61663"/>
<rtept lat="-27.09596" lon="-52.61667"/>
<rtept lat="-27.09577" lon="-52.61672"/>
<rtept lat="-27.09548" lon="-52.61681"/>
<rtept lat="-27.09539" lon="-52.61685"/>
<rtept lat="-27.09539" lon="-52.61684"/>
<rtept lat="-27.09538" lon="-52.61684"/>
<rtept lat="-27.09538" lon="-52.61683"/>
<rtept lat="-27.09537" lon="-52.61683"/>
<rtept lat="-27.09536" lon="-52.61682"/>
<rtept lat="-27.09535" lon="-52.61682"/>
<rtept lat="-27.09534" lon="-52.61682"/>
<rtept lat="-27.09533" lon="-52.61682"/>
<rtept lat="-27.09532" lon="-52.61682"/>
<rtept lat="-27.09531" lon="-52.61682"/>
<rtept lat="-27.0953" lon="-52.61682"/>
<rtept lat="-27.0953" lon="-52.61683"/>
<rtept lat="-27.09529" lon="-52.61683"/>
<rtept lat="-27.09528" lon="-52.61684"/>
<rtept lat="-27.09526" lon="-52.61687"/>
<rtept lat="-27.09508" lon="-52.61691"/>
<rtept lat="-27.09491" lon="-52.61696"/>
<rtept lat="-27.09479" lon="-52.61701"/>
<rtept lat="-27.09462" lon="-52.61706"/>
<rtept lat="-27.09445" lon="-52.61711"/>
<rtept lat="-27.09437" lon="-52.61713"/>
<rtept lat="-27.09421" lon="-52.61716"/>
<rtept lat="-27.09413" lon="-52.61716"/>
<rtept lat="-27.09412" lon="-52.61716"/>
<rtept lat="-27.09411" lon="-52.61715"/>
<rtept lat="-27.0941" lon="-52.61715"/>
<rtept lat="-27.09409" lon="-52.61715"/>
<rtept lat="-27.09408" lon="-52.61715"/>
<rtept lat="-27.09407" lon="-52.61715"/>
<rtept lat="-27.09406" lon="-52.61715"/>
<rtept lat="-27.09405" lon="-52.61715"/>
<rtept lat="-27.09404" lon="-52.61716"/>
<rtept lat="-27.09403" lon="-52.61716"/>
<rtept lat="-27.09403" lon="-52.61717"/>
<rtept lat="-27.09402" lon="-52.61717"/>
<rtept lat="-27.09402" lon="-52.61718"/>
<rtept lat="-27.09401" lon="-52.61718"/>
<rtept lat="-27.09401" lon="-52.61719"/>
<rtept lat="-27.09401" lon="-52.6172"/>
<rtept lat="-27.094" lon="-52.6172"/>
<rtept lat="-27.094" lon="-52.61721"/>
<rtept lat="-27.094" lon="-52.61722"/>
<rtept lat="-27.094" lon="-52.61723"/>
<rtept lat="-27.094" lon="-52.61724"/>
<rtept lat="-27.09378" lon="-52.61727"/>
<rtept lat="-27.09355" lon="-52.61731"/>
<rtept lat="-27.09331" lon="-52.61737"/>
<rtept lat="-27.09306" lon="-52.61744"/>
<rtept lat="-27.09287" lon="-52.61749"/>
<rtept lat="-27.09252" lon="-52.61757"/>
<rtept lat="-27.09236" lon="-52.61762"/>
<rtept lat="-27.09204" lon="-52.61772"/>
<rtept lat="-27.09205" lon="-52.61781"/>
<rtept lat="-27.09207" lon="-52.6179"/>
<rtept lat="-27.09216" lon="-52.61832"/>
<rtept lat="-27.09227" lon="-52.61883"/>
<rtept lat="-27.09247" lon="-52.61975"/>
<rtept lat="-27.09248" lon="-52.61981"/>
<rtept lat="-27.09249" lon="-52.61987"/>
<rtept lat="-27.09258" lon="-52.62026"/>
<rtept lat="-27.09263" lon="-52.62045"/>
<rtept lat="-27.09264" lon="-52.62051"/>
<rtept lat="-27.09279" lon="-52.62115"/>
<rtept lat="-27.09279" lon="-52.6212"/>
<rtept lat="-27.0928" lon="-52.62124"/>
<rtept lat="-27.09295" lon="-52.62191"/>
<rtept lat="-27.0931" lon="-52.62257"/>
<rtept lat="-27.09312" lon="-52.62264"/>
<rtept lat="-27.09314" lon="-52.62271"/>
<rtept lat="-27.0932" lon="-52.62298"/>
<rtept lat="-27.09323" lon="-52.62314"/>
<rtept lat="-27.09326" lon="-52.62333"/>
<rtept lat="-27.09338" lon="-52.62389"/>
<rtept lat="-27.09352" lon="-52.62447"/>
<rtept lat="-27.0937" lon="-52.62532"/>
<rtept lat="-27.09376" lon="-52.62549"/>
<rtept lat="-27.09384" lon="-52.62567"/>
<rtept lat="-27.09394" lon="-52.62576"/>
<rtept lat="-27.09428" lon="-52.62619"/>
<rtept lat="-27.09463" lon="-52.62661"/>
<rtept lat="-27.09495" lon="-52.62699"/>
<rtept lat="-27.09498" lon="-52.62703"/>
<rtept lat="-27.09523" lon="-52.62742"/>
<rtept lat="-27.09532" lon="-52.62768"/>
<rtept lat="-27.09541" lon="-52.62794"/>
<rtept lat="-27.09555" lon="-52.62827"/>
<rtept lat="-27.09568" lon="-52.62859"/>
<rtept lat="-27.0958" lon="-52.62891"/>
<rtept lat="-27.09582" lon="-52.62897"/>
<rtept lat="-27.09589" lon="-52.62915"/>
<rtept lat="-27.09592" lon="-52.62922"/>
<rtept lat="-27.09596" lon="-52.62938"/>
<rtept lat="-27.09601" lon="-52.62953"/>
<rtept lat="-27.09599" lon="-52.62975"/>
<rtept lat="-27.09596" lon="-52.62998"/>
<rtept lat="-27.09595" lon="-52.62999"/>
<rtept lat="-27.09594" lon="-52.62999"/>
<rtept lat="-27.09594" lon="-52.63"/>
<rtept lat="-27.09593" lon="-52.63"/>
<rtept lat="-27.09592" lon="-52.63001"/>
<rtept lat="-27.09591" lon="-52.63002"/>
<rtept lat="-27.09591" lon="-52.63003"/>
<rtept lat="-27.0959" lon="-52.63004"/>
<rtept lat="-27.09589" lon="-52.63005"/>
<rtept lat="-27.09589" lon="-52.63006"/>
<rtept lat="-27.09589" lon="-52.63007"/>
<rtept lat="-27.09589" lon="-52.63008"/>
<rtept lat="-27.09588" lon="-52.63009"/>
<rtept lat="-27.09588" lon="-52.6301"/>
<rtept lat="-27.09588" lon="-52.63011"/>
<rtept lat="-27.09588" lon="-52.63012"/>
<rtept lat="-27.09588" lon="-52.63013"/>
<rtept lat="-27.09588" lon="-52.63014"/>
<rtept lat="-27.09588" lon="-52.63015"/>
<rtept lat="-27.09589" lon="-52.63016"/>
<rtept lat="-27.09589" lon="-52.63017"/>
<rtept lat="-27.09589" lon="-52.63018"/>
<rtept lat="-27.0959" lon="-52.63019"/>
<rtept lat="-27.0959" lon="-52.6302"/>
<rtept lat="-27.09591" lon="-52.63021"/>
<rtept lat="-27.09591" lon="-52.63022"/>
<rtept lat="-27.09592" lon="-52.63022"/>
<rtept lat="-27.09593" lon="-52.63023"/>
<rtept lat="-27.09593" lon="-52.63024"/>
<rtept lat="-27.09594" lon="-52.63024"/>
<rtept lat="-27.09594" lon="-52.63025"/>
<rtept lat="-27.09595" lon="-52.63025"/>
<rtept lat="-27.09595" lon="-52.63041"/>
<rtept lat="-27.09594" lon="-52.6305"/>
<rtept lat="-27.0959" lon="-52.63067"/>
<rtept lat="-27.09581" lon="-52.63092"/>
<rtept lat="-27.09568" lon="-52.63126"/>
<rtept lat="-27.09555" lon="-52.6316"/>
<rtept lat="-27.0954" lon="-52.63194"/>
<rtept lat="-27.09526" lon="-52.63228"/>
<rtept lat="-27.09515" lon="-52.63265"/>
<rtept lat="-27.09505" lon="-52.63302"/>
<rtept lat="-27.09495" lon="-52.6334"/>
<rtept lat="-27.09485" lon="-52.63379"/>
<rtept lat="-27.09475" lon="-52.63416"/>
<rtept lat="-27.09465" lon="-52.63453"/>
<rtept lat="-27.09456" lon="-52.63492"/>
<rtept lat="-27.09447" lon="-52.63532"/>
<rtept lat="-27.09444" lon="-52.63565"/>
<rtept lat="-27.09443" lon="-52.63588"/>
<rtept lat="-27.09443" lon="-52.63591"/>
<rtept lat="-27.09444" lon="-52.63609"/>
<rtept lat="-27.09447" lon="-52.63633"/>
<rtept lat="-27.09452" lon="-52.63659"/>
<rtept lat="-27.09462" lon="-52.63683"/>
<rtept lat="-27.09472" lon="-52.63706"/>
<rtept lat="-27.09471" lon="-52.63707"/>
<rtept lat="-27.0947" lon="-52.63708"/>
<rtept lat="-27.09469" lon="-52.63709"/>
<rtept lat="-27.09469" lon="-52.6371"/>
<rtept lat="-27.09468" lon="-52.63711"/>
<rtept lat="-27.09467" lon="-52.63712"/>
<rtept lat="-27.09467" lon="-52.63713"/>
<rtept lat="-27.09467" lon="-52.63714"/>
<rtept lat="-27.09466" lon="-52.63716"/>
<rtept lat="-27.09466" lon="-52.63717"/>
<rtept lat="-27.09466" lon="-52.63718"/>
<rtept lat="-27.09466" lon="-52.63719"/>
<rtept lat="-27.09466" lon="-52.6372"/>
<rtept lat="-27.09466" lon="-52.63722"/>
<rtept lat="-27.09466" lon="-52.63723"/>
<rtept lat="-27.09466" lon="-52.63724"/>
<rtept lat="-27.09467" lon="-52.63725"/>
<rtept lat="-27.09467" lon="-52.63727"/>
<rtept lat="-27.09467" lon="-52.63728"/>
<rtept lat="-27.09468" lon="-52.63729"/>
<rtept lat="-27.09468" lon="-52.6373"/>
<rtept lat="-27.09469" lon="-52.63731"/>
<rtept lat="-27.0947" lon="-52.63732"/>
<rtept lat="-27.09471" lon="-52.63733"/>
<rtept lat="-27.09471" lon="-52.63734"/>
<rtept lat="-27.09472" lon="-52.63735"/>
<rtept lat="-27.09473" lon="-52.63735"/>
<rtept lat="-27.09474" lon="-52.63736"/>
<rtept lat="-27.09475" lon="-52.63736"/>
<rtept lat="-27.09475" lon="-52.63737"/>
<rtept lat="-27.09476" lon="-52.63737"/>
<rtept lat="-27.09477" lon="-52.63737"/>
<rtept lat="-27.09478" lon="-52.63737"/>
<rtept lat="-27.09479" lon="-52.63738"/>
<rtept lat="-27.0948" lon="-52.63738"/>
<rtept lat="-27.09482" lon="-52.63737"/>
<rtept lat="-27.09483" lon="-52.63738"/>
<rtept lat="-27.09494" lon="-52.6377"/>
<rtept lat="-27.09494" lon="-52.63772"/>
<rtept lat="-27.09501" lon="-52.6379"/>
<rtept lat="-27.09507" lon="-52.63809"/>
<rtept lat="-27.0952" lon="-52.63847"/>
<rtept lat="-27.09524" lon="-52.63857"/>
<rtept lat="-27.09528" lon="-52.63866"/>
<rtept lat="-27.0954" lon="-52.63901"/>
<rtept lat="-27.09546" lon="-52.63915"/>
<rtept lat="-27.09548" lon="-52.6392"/>
<rtept lat="-27.09561" lon="-52.63958"/>
<rtept lat="-27.09568" lon="-52.63976"/>
<rtept lat="-27.09584" lon="-52.64023"/>
<rtept lat="-27.09588" lon="-52.64033"/>
<rtept lat="-27.09592" lon="-52.64045"/>
<rtept lat="-27.09606" lon="-52.64086"/>
<rtept lat="-27.09607" lon="-52.64087"/>
<rtept lat="-27.0961" lon="-52.64094"/>
<rtept lat="-27.09613" lon="-52.64103"/>
<rtept lat="-27.09623" lon="-52.64129"/>
<rtept lat="-27.09678" lon="-52.64277"/>
<rtept lat="-27.09733" lon="-52.64425"/>
<rtept lat="-27.09746" lon="-52.6446"/>
<rtept lat="-27.09759" lon="-52.64496"/>
<rtept lat="-27.09764" lon="-52.64511"/>
<rtept lat="-27.09769" lon="-52.64525"/>
<rtept lat="-27.09777" lon="-52.64548"/>
<rtept lat="-27.09786" lon="-52.64569"/>
<rtept lat="-27.09795" lon="-52.64596"/>
<rtept lat="-27.09799" lon="-52.64609"/>
<rtept lat="-27.09803" lon="-52.64623"/>
<rtept lat="-27.09808" lon="-52.64647"/>
<rtept lat="-27.09814" lon="-52.64681"/>
<rtept lat="-27.09817" lon="-52.64704"/>
<rtept lat="-27.09819" lon="-52.64719"/>
<rtept lat="-27.0982" lon="-52.64757"/>
<rtept lat="-27.0982" lon="-52.64791"/>
<rtept lat="-27.09819" lon="-52.64823"/>
<rtept lat="-27.09816" lon="-52.6487"/>
<rtept lat="-27.09815" lon="-52.64878"/>
<rtept lat="-27.09804" lon="-52.64979"/>
<rtept lat="-27.09802" lon="-52.64991"/>
<rtept lat="-27.09792" lon="-52.65052"/>
<rtept lat="-27.09791" lon="-52.65073"/>
<rtept lat="-27.0979" lon="-52.65077"/>
<rtept lat="-27.0978" lon="-52.65177"/>
<rtept lat="-27.09778" lon="-52.65197"/>
<rtept lat="-27.09774" lon="-52.65237"/>
<rtept lat="-27.0976" lon="-52.65371"/>
<rtept lat="-27.09758" lon="-52.6538"/>
<rtept lat="-27.09756" lon="-52.65387"/>
<rtept lat="-27.09754" lon="-52.65394"/>
<rtept lat="-27.09753" lon="-52.65395"/>
<rtept lat="-27.09752" lon="-52.65395"/>
<rtept lat="-27.09752" lon="-52.65396"/>
<rtept lat="-27.09751" lon="-52.65396"/>
<rtept lat="-27.0975" lon="-52.65397"/>
<rtept lat="-27.09749" lon="-52.65398"/>
<rtept lat="-27.09748" lon="-52.65399"/>
<rtept lat="-27.09748" lon="-52.65401"/>
<rtept lat="-27.09747" lon="-52.65402"/>
<rtept lat="-27.09747" lon="-52.65404"/>
<rtept lat="-27.09747" lon="-52.65405"/>
<rtept lat="-27.09747" lon="-52.65406"/>
<rtept lat="-27.09747" lon="-52.65408"/>
<rtept lat="-27.09746" lon="-52.65409"/>
<rtept lat="-27.09747" lon="-52.65411"/>
<rtept lat="-27.09747" lon="-52.65413"/>
<rtept lat="-27.09747" lon="-52.65416"/>
<rtept lat="-27.09748" lon="-52.65418"/>
<rtept lat="-27.09748" lon="-52.6542"/>
<rtept lat="-27.09749" lon="-52.65422"/>
<rtept lat="-27.0975" lon="-52.65423"/>
<rtept lat="-27.09751" lon="-52.65425"/>
<rtept lat="-27.09753" lon="-52.65428"/>
<rtept lat="-27.09753" lon="-52.65432"/>
<rtept lat="-27.09754" lon="-52.65437"/>
<rtept lat="-27.09749" lon="-52.65477"/>
<rtept lat="-27.09747" lon="-52.65497"/>
<rtept lat="-27.0974" lon="-52.65553"/>
<rtept lat="-27.09739" lon="-52.65563"/>
<rtept lat="-27.09734" lon="-52.65613"/>
<rtept lat="-27.09732" lon="-52.65633"/>
<rtept lat="-27.09731" lon="-52.65651"/>
<rtept lat="-27.09723" lon="-52.65729"/>
<rtept lat="-27.09718" lon="-52.65772"/>
<rtept lat="-27.09714" lon="-52.65816"/>
<rtept lat="-27.09714" lon="-52.65826"/>
<rtept lat="-27.09703" lon="-52.65927"/>
<rtept lat="-27.09701" lon="-52.65947"/>
<rtept lat="-27.09693" lon="-52.66027"/>
<rtept lat="-27.09691" lon="-52.66044"/>
<rtept lat="-27.09666" lon="-52.66271"/>
<rtept lat="-27.09641" lon="-52.66265"/>
<rtept lat="-27.0961" lon="-52.66256"/>
<rtept lat="-27.09592" lon="-52.66251"/>
<rtept lat="-27.09575" lon="-52.66247"/>
<rtept lat="-27.09571" lon="-52.66246"/>
<rtept lat="-27.09568" lon="-52.66245"/>
<rtept lat="-27.09505" lon="-52.66228"/>
<rtept lat="-27.09501" lon="-52.66227"/>
<rtept lat="-27.0947" lon="-52.66218"/>
<rtept lat="-27.09464" lon="-52.66218"/>
<rtept lat="-27.09471" lon="-52.66278"/>
<rtept lat="-27.09471" lon="-52.66282"/>
<rtept lat="-27.09471" lon="-52.66285"/>
<rtept lat="-27.09474" lon="-52.66318"/>
<rtept lat="-27.09476" lon="-52.66333"/>
<rtept lat="-27.09476" lon="-52.66334"/>
<rtept lat="-27.09476" lon="-52.66337"/>
<rtept lat="-27.09477" lon="-52.66355"/>
<rtept lat="-27.09476" lon="-52.66358"/>
<rtept lat="-27.09473" lon="-52.66379"/>
<rtept lat="-27.09472" lon="-52.66384"/>
<rtept lat="-27.09471" lon="-52.66388"/>
<rtept lat="-27.09461" lon="-52.66424"/>
<rtept lat="-27.0946" lon="-52.66428"/>
<rtept lat="-27.09451" lon="-52.66466"/>
<rtept lat="-27.0945" lon="-52.66472"/>
<rtept lat="-27.09432" lon="-52.66521"/>
<rtept lat="-27.0943" lon="-52.66525"/>
<rtept lat="-27.09428" lon="-52.66529"/>
<rtept lat="-27.0942" lon="-52.66548"/>
<rtept lat="-27.09417" lon="-52.66553"/>
<rtept lat="-27.09415" lon="-52.66562"/>
<rtept lat="-27.09413" lon="-52.66566"/>
<rtept lat="-27.09413" lon="-52.66569"/>
<rtept lat="-27.09412" lon="-52.66572"/>
<rtept lat="-27.0941" lon="-52.66585"/>
<rtept lat="-27.09409" lon="-52.66602"/>
<rtept lat="-27.09408" lon="-52.66605"/>
<rtept lat="-27.09406" lon="-52.66619"/>
<rtept lat="-27.09405" lon="-52.66633"/>
<rtept lat="-27.09404" lon="-52.66639"/>
<rtept lat="-27.09404" lon="-52.66644"/>
<rtept lat="-27.09405" lon="-52.66648"/>
<rtept lat="-27.09406" lon="-52.6665"/>
<rtept lat="-27.0941" lon="-52.66654"/>
<rtept lat="-27.09416" lon="-52.66661"/>
<rtept lat="-27.09487" lon="-52.66698"/>
<rtept lat="-27.09515" lon="-52.66713"/>
<rtept lat="-27.09525" lon="-52.66718"/>
<rtept lat="-27.09616" lon="-52.6677"/>
<rtept lat="-27.09612" lon="-52.66813"/>
<rtept lat="-27.09608" lon="-52.66856"/>
<rtept lat="-27.09604" lon="-52.66893"/>
<rtept lat="-27.09601" lon="-52.6693"/>
<rtept lat="-27.09597" lon="-52.66967"/>
<rtept lat="-27.09594" lon="-52.67004"/>
<rtept lat="-27.0959" lon="-52.6704"/>
<rtept lat="-27.09586" lon="-52.67072"/>
<rtept lat="-27.09585" lon="-52.67082"/>
<rtept lat="-27.09581" lon="-52.67121"/>
<rtept lat="-27.09578" lon="-52.6716"/>
<rtept lat="-27.09575" lon="-52.67185"/>
<rtept lat="-27.09572" lon="-52.67209"/>
<rtept lat="-27.0957" lon="-52.67225"/>
<rtept lat="-27.09569" lon="-52.6724"/>
<rtept lat="-27.09562" lon="-52.67304"/>
<rtept lat="-27.09561" lon="-52.67316"/>
<rtept lat="-27.0956" lon="-52.67327"/>
<rtept lat="-27.09556" lon="-52.67356"/>
<rtept lat="-27.09549" lon="-52.67402"/>
<rtept lat="-27.09547" lon="-52.67418"/>
<rtept lat="-27.09541" lon="-52.67455"/>
<rtept lat="-27.09541" lon="-52.67458"/>
<rtept lat="-27.09537" lon="-52.67491"/>
<rtept lat="-27.09536" lon="-52.6752"/>
<rtept lat="-27.09534" lon="-52.67551"/>
<rtept lat="-27.09531" lon="-52.67582"/>
<rtept lat="-27.09524" lon="-52.67673"/>
<rtept lat="-27.09518" lon="-52.67727"/>
<rtept lat="-27.09516" lon="-52.67748"/>
<rtept lat="-27.09509" lon="-52.67822"/>
<rtept lat="-27.09503" lon="-52.67879"/>
<rtept lat="-27.095" lon="-52.67902"/>
<rtept lat="-27.09499" lon="-52.6791"/>
<rtept lat="-27.09492" lon="-52.67986"/>
<rtept lat="-27.09484" lon="-52.68022"/>
<rtept lat="-27.0948" lon="-52.68059"/>
<rtept lat="-27.09466" lon="-52.68149"/>
<rtept lat="-27.09465" lon="-52.6815"/>
<rtept lat="-27.09464" lon="-52.68151"/>
<rtept lat="-27.09463" lon="-52.68152"/>
<rtept lat="-27.09462" lon="-52.68153"/>
<rtept lat="-27.09461" lon="-52.68154"/>
<rtept lat="-27.0946" lon="-52.68156"/>
<rtept lat="-27.09459" lon="-52.68157"/>
<rtept lat="-27.09459" lon="-52.68158"/>
<rtept lat="-27.09458" lon="-52.6816"/>
<rtept lat="-27.09458" lon="-52.68161"/>
<rtept lat="-27.09458" lon="-52.68163"/>
<rtept lat="-27.09458" lon="-52.68164"/>
<rtept lat="-27.09458" lon="-52.68166"/>
<rtept lat="-27.09458" lon="-52.68167"/>
<rtept lat="-27.09458" lon="-52.68168"/>
<rtept lat="-27.09458" lon="-52.6817"/>
<rtept lat="-27.09458" lon="-52.68171"/>
<rtept lat="-27.09459" lon="-52.68173"/>
<rtept lat="-27.0946" lon="-52.68175"/>
<rtept lat="-27.09461" lon="-52.68176"/>
<rtept lat="-27.09461" lon="-52.68178"/>
<rtept lat="-27.09462" lon="-52.68179"/>
<rtept lat="-27.09463" lon="-52.6818"/>
<rtept lat="-27.09464" lon="-52.68181"/>
<rtept lat="-27.09465" lon="-52.68182"/>
<rtept lat="-27.09466" lon="-52.68182"/>
<rtept lat="-27.09468" lon="-52.68183"/>
<rtept lat="-27.09469" lon="-52.68184"/>
<rtept lat="-27.09465" lon="-52.6822"/>
<rtept lat="-27.09459" lon="-52.68296"/>
<rtept lat="-27.09459" lon="-52.68299"/>
<rtept lat="-27.09456" lon="-52.68326"/>
<rtept lat="-27.09448" lon="-52.68344"/>
<rtept lat="-27.09437" lon="-52.6836"/>
<rtept lat="-27.09434" lon="-52.68364"/>
<rtept lat="-27.0942" lon="-52.68387"/>
<rtept lat="-27.09415" lon="-52.68397"/>
<rtept lat="-27.09412" lon="-52.68404"/>
<rtept lat="-27.09409" lon="-52.68413"/>
<rtept lat="-27.09408" lon="-52.68434"/>
<rtept lat="-27.09409" lon="-52.68453"/>
<rtept lat="-27.09409" lon="-52.68458"/>
<rtept lat="-27.09414" lon="-52.68479"/>
<rtept lat="-27.09415" lon="-52.68481"/>
<rtept lat="-27.09419" lon="-52.68496"/>
<rtept lat="-27.09425" lon="-52.68515"/>
<rtept lat="-27.09426" lon="-52.68519"/>
<rtept lat="-27.09427" lon="-52.68529"/>
<rtept lat="-27.09427" lon="-52.68539"/>
<rtept lat="-27.09427" lon="-52.68545"/>
<rtept lat="-27.09426" lon="-52.68557"/>
<rtept lat="-27.09425" lon="-52.68565"/>
<rtept lat="-27.09422" lon="-52.68587"/>
<rtept lat="-27.09418" lon="-52.68625"/>
<rtept lat="-27.09426" lon="-52.68626"/>
<rtept lat="-27.09467" lon="-52.6863"/>
<rtept lat="-27.09484" lon="-52.68632"/>
<rtept lat="-27.09538" lon="-52.68638"/>
<rtept lat="-27.09589" lon="-52.68644"/>
<rtept lat="-27.0964" lon="-52.6865"/>
<rtept lat="-27.09694" lon="-52.68657"/>
<rtept lat="-27.09707" lon="-52.68659"/>
<rtept lat="-27.09773" lon="-52.68668"/>
<rtept lat="-27.09827" lon="-52.68673"/>
<rtept lat="-27.09877" lon="-52.68678"/>
<rtept lat="-27.09929" lon="-52.68684"/>
<rtept lat="-27.0998" lon="-52.6869"/>
<rtept lat="-27.09984" lon="-52.68658"/>
<rtept lat="-27.09987" lon="-52.68626"/>
<rtept lat="-27.09991" lon="-52.68595"/>
<rtept lat="-27.09991" lon="-52.68594"/>
<rtept lat="-27.09994" lon="-52.68563"/>
<rtept lat="-27.09998" lon="-52.68531"/>
<rtept lat="-27.10002" lon="-52.68499"/>
<rtept lat="-27.10003" lon="-52.68469"/>
<rtept lat="-27.10005" lon="-52.6844"/>
<rtept lat="-27.10008" lon="-52.68407"/>
<rtept lat="-27.10011" lon="-52.68374"/>
<rtept lat="-27.10014" lon="-52.68342"/>
<rtept lat="-27.1002" lon="-52.68282"/>
<rtept lat="-27.10024" lon="-52.68243"/>
<rtept lat="-27.10026" lon="-52.68226"/>
<rtept lat="-27.10028" lon="-52.68206"/>
<rtept lat="-27.10031" lon="-52.6817"/>
<rtept lat="-27.10034" lon="-52.68134"/>
<rtept lat="-27.10038" lon="-52.68097"/>
<rtept lat="-27.10042" lon="-52.6806"/>
<rtept lat="-27.10047" lon="-52.68017"/>
<rtept lat="-27.10048" lon="-52.68015"/>
<rtept lat="-27.10053" lon="-52.67975"/>
<rtept lat="-27.10057" lon="-52.67935"/>
<rtept lat="-27.10059" lon="-52.67915"/>
<rtept lat="-27.10061" lon="-52.67895"/>
<rtept lat="-27.10064" lon="-52.67857"/>
<rtept lat="-27.10067" lon="-52.67818"/>
<rtept lat="-27.10069" lon="-52.67804"/>
<rtept lat="-27.1007" lon="-52.67784"/>
<rtept lat="-27.10071" lon="-52.67781"/>
<rtept lat="-27.10074" lon="-52.67743"/>
<rtept lat="-27.10079" lon="-52.67699"/>
<rtept lat="-27.10083" lon="-52.67659"/>
<rtept lat="-27.10083" lon="-52.67657"/>
<rtept lat="-27.10083" lon="-52.67655"/>
<rtept lat="-27.1008" lon="-52.67652"/>
<rtept lat="-27.10077" lon="-52.67651"/>
<rtept lat="-27.10074" lon="-52.6765"/>
<rtept lat="-27.10039" lon="-52.67647"/>
<rtept lat="-27.10017" lon="-52.67645"/>
<rtept lat="-27.09981" lon="-52.67642"/>
<rtept lat="-27.09911" lon="-52.67634"/>
<rtept lat="-27.0988" lon="-52.6763"/>
<rtept lat="-27.09864" lon="-52.67628"/>
<rtept lat="-27.09806" lon="-52.67621"/>
<rtept lat="-27.09754" lon="-52.6761"/>
<rtept lat="-27.09749" lon="-52.67609"/>
<rtept lat="-27.09642" lon="-52.67598"/>
<rtept lat="-27.0961" lon="-52.67593"/>
<rtept lat="-27.09592" lon="-52.67591"/>
<rtept lat="-27.09538" lon="-52.67583"/>
<rtept lat="-27.09541" lon="-52.67552"/>
<rtept lat="-27.09544" lon="-52.67521"/>
<rtept lat="-27.09548" lon="-52.67494"/>
<rtept lat="-27.09552" lon="-52.6746"/>
<rtept lat="-27.09553" lon="-52.67458"/>
<rtept lat="-27.09557" lon="-52.67418"/>
<rtept lat="-27.09559" lon="-52.67398"/>
<rtept lat="-27.09564" lon="-52.67355"/>
<rtept lat="-27.09567" lon="-52.67327"/>
<rtept lat="-27.09568" lon="-52.67317"/>
<rtept lat="-27.09569" lon="-52.67308"/>
<rtept lat="-27.09576" lon="-52.67241"/>
<rtept lat="-27.09577" lon="-52.67226"/>
<rtept lat="-27.09578" lon="-52.67211"/>
<rtept lat="-27.09582" lon="-52.67186"/>
<rtept lat="-27.09585" lon="-52.67161"/>
<rtept lat="-27.09588" lon="-52.67123"/>
<rtept lat="-27.0959" lon="-52.67108"/>
<rtept lat="-27.09592" lon="-52.67082"/>
<rtept lat="-27.09596" lon="-52.67046"/>
<rtept lat="-27.096" lon="-52.67005"/>
<rtept lat="-27.09604" lon="-52.66968"/>
<rtept lat="-27.09608" lon="-52.66931"/>
<rtept lat="-27.09612" lon="-52.66894"/>
<rtept lat="-27.09616" lon="-52.66857"/>
<rtept lat="-27.09622" lon="-52.66772"/>
<rtept lat="-27.09624" lon="-52.66758"/>
<rtept lat="-27.09637" lon="-52.66637"/>
<rtept lat="-27.09643" lon="-52.66576"/>
<rtept lat="-27.09645" lon="-52.66561"/>
<rtept lat="-27.09668" lon="-52.66342"/>
<rtept lat="-27.09675" lon="-52.66275"/>
<rtept lat="-27.097" lon="-52.66049"/>
<rtept lat="-27.09706" lon="-52.65989"/>
<rtept lat="-27.09715" lon="-52.65908"/>
<rtept lat="-27.0972" lon="-52.65836"/>
<rtept lat="-27.09721" lon="-52.65819"/>
<rtept lat="-27.09728" lon="-52.65752"/>
<rtept lat="-27.0973" lon="-52.65732"/>
<rtept lat="-27.09739" lon="-52.65652"/>
<rtept lat="-27.0974" lon="-52.65636"/>
<rtept lat="-27.09741" lon="-52.65634"/>
<rtept lat="-27.09742" lon="-52.65614"/>
<rtept lat="-27.09748" lon="-52.65554"/>
<rtept lat="-27.09763" lon="-52.65435"/>
<rtept lat="-27.09766" lon="-52.65425"/>
<rtept lat="-27.09767" lon="-52.65424"/>
<rtept lat="-27.09768" lon="-52.65424"/>
<rtept lat="-27.09769" lon="-52.65422"/>
<rtept lat="-27.0977" lon="-52.65421"/>
<rtept lat="-27.09771" lon="-52.6542"/>
<rtept lat="-27.09771" lon="-52.65419"/>
<rtept lat="-27.09771" lon="-52.65418"/>
<rtept lat="-27.09772" lon="-52.65417"/>
<rtept lat="-27.09772" lon="-52.65416"/>
<rtept lat="-27.09772" lon="-52.65415"/>
<rtept lat="-27.09772" lon="-52.65414"/>
<rtept lat="-27.09773" lon="-52.65414"/>
<rtept lat="-27.09773" lon="-52.65413"/>
<rtept lat="-27.09773" lon="-52.65411"/>
<rtept lat="-27.09773" lon="-52.6541"/>
<rtept lat="-27.09773" lon="-52.65409"/>
<rtept lat="-27.09772" lon="-52.65407"/>
<rtept lat="-27.09772" lon="-52.65406"/>
<rtept lat="-27.09772" lon="-52.65405"/>
<rtept lat="-27.09772" lon="-52.65404"/>
<rtept lat="-27.09772" lon="-52.65403"/>
<rtept lat="-27.09772" lon="-52.65402"/>
<rtept lat="-27.09771" lon="-52.65401"/>
<rtept lat="-27.09771" lon="-52.654"/>
<rtept lat="-27.09771" lon="-52.65399"/>
<rtept lat="-27.0977" lon="-52.65398"/>
<rtept lat="-27.09769" lon="-52.65396"/>
<rtept lat="-27.09768" lon="-52.65389"/>
<rtept lat="-27.09768" lon="-52.65384"/>
<rtept lat="-27.09768" lon="-52.65378"/>
<rtept lat="-27.09777" lon="-52.65295"/>
<rtept lat="-27.09784" lon="-52.65237"/>
<rtept lat="-27.09792" lon="-52.65166"/>
<rtept lat="-27.09794" lon="-52.65141"/>
<rtept lat="-27.09797" lon="-52.65121"/>
<rtept lat="-27.098" lon="-52.65086"/>
<rtept lat="-27.09801" lon="-52.65077"/>
<rtept lat="-27.09808" lon="-52.65007"/>
<rtept lat="-27.09809" lon="-52.64992"/>
<rtept lat="-27.09828" lon="-52.64825"/>
<rtept lat="-27.09828" lon="-52.64787"/>
<rtept lat="-27.09829" lon="-52.64749"/>
<rtept lat="-27.09829" lon="-52.64733"/>
<rtept lat="-27.09829" lon="-52.64717"/>
<rtept lat="-27.09827" lon="-52.64691"/>
<rtept lat="-27.09825" lon="-52.64664"/>
<rtept lat="-27.09815" lon="-52.64626"/>
<rtept lat="-27.09803" lon="-52.64591"/>
<rtept lat="-27.09793" lon="-52.64562"/>
<rtept lat="-27.09783" lon="-52.64535"/>
<rtept lat="-27.09768" lon="-52.64496"/>
<rtept lat="-27.09761" lon="-52.64477"/>
<rtept lat="-27.09746" lon="-52.64439"/>
<rtept lat="-27.09743" lon="-52.64428"/>
<rtept lat="-27.09737" lon="-52.64412"/>
<rtept lat="-27.09735" lon="-52.64402"/>
<rtept lat="-27.09689" lon="-52.6428"/>
<rtept lat="-27.09634" lon="-52.64131"/>
<rtept lat="-27.0962" lon="-52.64094"/>
<rtept lat="-27.09605" lon="-52.64057"/>
<rtept lat="-27.09591" lon="-52.64017"/>
<rtept lat="-27.09576" lon="-52.63977"/>
<rtept lat="-27.0955" lon="-52.63902"/>
<rtept lat="-27.09543" lon="-52.63883"/>
<rtept lat="-27.09537" lon="-52.63866"/>
<rtept lat="-27.09533" lon="-52.63853"/>
<rtept lat="-27.09504" lon="-52.63771"/>
<rtept lat="-27.09492" lon="-52.63731"/>
<rtept lat="-27.09493" lon="-52.6373"/>
<rtept lat="-27.09493" lon="-52.63729"/>
<rtept lat="-27.09494" lon="-52.63728"/>
<rtept lat="-27.09494" lon="-52.63727"/>
<rtept lat="-27.09495" lon="-52.63726"/>
<rtept lat="-27.09495" lon="-52.63725"/>
<rtept lat="-27.09495" lon="-52.63723"/>
<rtept lat="-27.09496" lon="-52.63722"/>
<rtept lat="-27.09496" lon="-52.63721"/>
<rtept lat="-27.09496" lon="-52.6372"/>
<rtept lat="-27.09496" lon="-52.63718"/>
<rtept lat="-27.09495" lon="-52.63717"/>
<rtept lat="-27.09495" lon="-52.63716"/>
<rtept lat="-27.09495" lon="-52.63714"/>
<rtept lat="-27.09494" lon="-52.63713"/>
<rtept lat="-27.09494" lon="-52.63712"/>
<rtept lat="-27.09493" lon="-52.6371"/>
<rtept lat="-27.09492" lon="-52.63709"/>
<rtept lat="-27.09492" lon="-52.63708"/>
<rtept lat="-27.09491" lon="-52.63707"/>
<rtept lat="-27.0949" lon="-52.63706"/>
<rtept lat="-27.09489" lon="-52.63705"/>
<rtept lat="-27.09488" lon="-52.63704"/>
<rtept lat="-27.09487" lon="-52.63704"/>
<rtept lat="-27.09486" lon="-52.63703"/>
<rtept lat="-27.09485" lon="-52.63703"/>
<rtept lat="-27.09484" lon="-52.63702"/>
<rtept lat="-27.09483" lon="-52.63702"/>
<rtept lat="-27.09482" lon="-52.63702"/>
<rtept lat="-27.0948" lon="-52.63702"/>
<rtept lat="-27.09479" lon="-52.63702"/>
<rtept lat="-27.09461" lon="-52.6366"/>
<rtept lat="-27.09456" lon="-52.63636"/>
<rtept lat="-27.09452" lon="-52.63615"/>
<rtept lat="-27.0945" lon="-52.6359"/>
<rtept lat="-27.0945" lon="-52.63569"/>
<rtept lat="-27.09451" lon="-52.63558"/>
<rtept lat="-27.09454" lon="-52.63541"/>
<rtept lat="-27.09456" lon="-52.63526"/>
<rtept lat="-27.09461" lon="-52.635"/>
<rtept lat="-27.09471" lon="-52.6346"/>
<rtept lat="-27.09481" lon="-52.63422"/>
<rtept lat="-27.09492" lon="-52.63383"/>
<rtept lat="-27.09502" lon="-52.63345"/>
<rtept lat="-27.09512" lon="-52.63307"/>
<rtept lat="-27.09521" lon="-52.6327"/>
<rtept lat="-27.09532" lon="-52.63235"/>
<rtept lat="-27.09545" lon="-52.63198"/>
<rtept lat="-27.0956" lon="-52.63164"/>
<rtept lat="-27.09575" lon="-52.6313"/>
<rtept lat="-27.09591" lon="-52.63096"/>
<rtept lat="-27.09601" lon="-52.63064"/>
<rtept lat="-27.09604" lon="-52.63051"/>
<rtept lat="-27.09608" lon="-52.63027"/>
<rtept lat="-27.09609" lon="-52.63027"/>
<rtept lat="-27.09609" lon="-52.63026"/>
<rtept lat="-27.0961" lon="-52.63026"/>
<rtept lat="-27.0961" lon="-52.63025"/>
<rtept lat="-27.09611" lon="-52.63025"/>
<rtept lat="-27.09611" lon="-52.63024"/>
<rtept lat="-27.09612" lon="-52.63024"/>
<rtept lat="-27.09612" lon="-52.63023"/>
<rtept lat="-27.09613" lon="-52.63022"/>
<rtept lat="-27.09613" lon="-52.63021"/>
<rtept lat="-27.09614" lon="-52.6302"/>
<rtept lat="-27.09614" lon="-52.63019"/>
<rtept lat="-27.09615" lon="-52.63018"/>
<rtept lat="-27.09615" lon="-52.63017"/>
<rtept lat="-27.09615" lon="-52.63016"/>
<rtept lat="-27.09615" lon="-52.63015"/>
<rtept lat="-27.09615" lon="-52.63014"/>
<rtept lat="-27.09615" lon="-52.63013"/>
<rtept lat="-27.09615" lon="-52.63012"/>
<rtept lat="-27.09615" lon="-52.63011"/>
<rtept lat="-27.09615" lon="-52.6301"/>
<rtept lat="-27.09615" lon="-52.63009"/>
<rtept lat="-27.09615" lon="-52.63008"/>
<rtept lat="-27.09615" lon="-52.63007"/>
<rtept lat="-27.09614" lon="-52.63006"/>
<rtept lat="-27.09614" lon="-52.63005"/>
<rtept lat="-27.09613" lon="-52.63004"/>
<rtept lat="-27.09613" lon="-52.63003"/>
<rtept lat="-27.09612" lon="-52.63002"/>
<rtept lat="-27.09611" lon="-52.63001"/>
<rtept lat="-27.09611" lon="-52.63"/>
<rtept lat="-27.0961" lon="-52.63"/>
<rtept lat="-27.09605" lon="-52.62977"/>
<rtept lat="-27.09601" lon="-52.62953"/>
<rtept lat="-27.09596" lon="-52.62938"/>
<rtept lat="-27.09592" lon="-52.62922"/>
<rtept lat="-27.09589" lon="-52.62915"/>
<rtept lat="-27.09582" lon="-52.62897"/>
<rtept lat="-27.0958" lon="-52.62891"/>
<rtept lat="-27.09568" lon="-52.62859"/>
<rtept lat="-27.09555" lon="-52.62827"/>
<rtept lat="-27.09541" lon="-52.62794"/>
<rtept lat="-27.09532" lon="-52.62768"/>
<rtept lat="-27.09523" lon="-52.62742"/>
<rtept lat="-27.09498" lon="-52.62703"/>
<rtept lat="-27.09495" lon="-52.62699"/>
<rtept lat="-27.09463" lon="-52.62661"/>
<rtept lat="-27.09428" lon="-52.62619"/>
<rtept lat="-27.09394" lon="-52.62576"/>
<rtept lat="-27.09384" lon="-52.62567"/>
<rtept lat="-27.09376" lon="-52.62549"/>
<rtept lat="-27.0937" lon="-52.62532"/>
<rtept lat="-27.09352" lon="-52.62447"/>
<rtept lat="-27.09338" lon="-52.62389"/>
<rtept lat="-27.09326" lon="-52.62333"/>
<rtept lat="-27.09323" lon="-52.62314"/>
<rtept lat="-27.0932" lon="-52.62298"/>
<rtept lat="-27.09314" lon="-52.62271"/>
<rtept lat="-27.09312" lon="-52.62264"/>
<rtept lat="-27.0931" lon="-52.62257"/>
<rtept lat="-27.09295" lon="-52.62191"/>
<rtept lat="-27.0928" lon="-52.62124"/>
<rtept lat="-27.09337" lon="-52.62112"/>
<rtept lat="-27.09341" lon="-52.62111"/>
<rtept lat="-27.09384" lon="-52.62099"/>
<rtept lat="-27.09439" lon="-52.62083"/>
<rtept lat="-27.09485" lon="-52.62072"/>
<rtept lat="-27.09507" lon="-52.62065"/>
<rtept lat="-27.09537" lon="-52.62055"/>
<rtept lat="-27.09571" lon="-52.62048"/>
<rtept lat="-27.09604" lon="-52.62039"/>
<rtept lat="-27.09604" lon="-52.6204"/>
<rtept lat="-27.09605" lon="-52.6204"/>
<rtept lat="-27.09606" lon="-52.6204"/>
<rtept lat="-27.09606" lon="-52.62041"/>
<rtept lat="-27.09607" lon="-52.62041"/>
<rtept lat="-27.09608" lon="-52.62041"/>
<rtept lat="-27.09609" lon="-52.62041"/>
<rtept lat="-27.0961" lon="-52.62041"/>
<rtept lat="-27.0961" lon="-52.6204"/>
<rtept lat="-27.09611" lon="-52.6204"/>
<rtept lat="-27.09612" lon="-52.6204"/>
<rtept lat="-27.09613" lon="-52.62039"/>
<rtept lat="-27.09614" lon="-52.62039"/>
<rtept lat="-27.09614" lon="-52.62038"/>
<rtept lat="-27.09615" lon="-52.62038"/>
<rtept lat="-27.09615" lon="-52.62037"/>
<rtept lat="-27.09615" lon="-52.62036"/>
<rtept lat="-27.09616" lon="-52.62036"/>
<rtept lat="-27.09633" lon="-52.62031"/>
<rtept lat="-27.0965" lon="-52.62025"/>
<rtept lat="-27.09668" lon="-52.6202"/>
<rtept lat="-27.09687" lon="-52.62014"/>
<rtept lat="-27.09699" lon="-52.6201"/>
<rtept lat="-27.09734" lon="-52.61999"/>
<rtept lat="-27.09735" lon="-52.61999"/>
<rtept lat="-27.09735" lon="-52.62"/>
<rtept lat="-27.09736" lon="-52.62"/>
<rtept lat="-27.09737" lon="-52.62"/>
<rtept lat="-27.09738" lon="-52.62"/>
<rtept lat="-27.09739" lon="-52.62"/>
<rtept lat="-27.0974" lon="-52.62"/>
<rtept lat="-27.09741" lon="-52.61999"/>
<rtept lat="-27.09742" lon="-52.61999"/>
<rtept lat="-27.09742" lon="-52.61998"/>
<rtept lat="-27.09743" lon="-52.61998"/>
<rtept lat="-27.09743" lon="-52.61997"/>
<rtept lat="-27.09801" lon="-52.61983"/>
<rtept lat="-27.0981" lon="-52.6198"/>
<rtept lat="-27.09834" lon="-52.61974"/>
<rtept lat="-27.09859" lon="-52.61968"/>
<rtept lat="-27.09864" lon="-52.61967"/>
<rtept lat="-27.09869" lon="-52.61966"/>
<rtept lat="-27.09899" lon="-52.61958"/>
<rtept lat="-27.0993" lon="-52.61949"/>
<rtept lat="-27.09949" lon="-52.61944"/>
<rtept lat="-27.09965" lon="-52.61939"/>
<rtept lat="-27.09987" lon="-52.61933"/>
<rtept lat="-27.09987" lon="-52.61934"/>
<rtept lat="-27.09988" lon="-52.61934"/>
<rtept lat="-27.09989" lon="-52.61935"/>
<rtept lat="-27.0999" lon="-52.61935"/>
<rtept lat="-27.09991" lon="-52.61935"/>
<rtept lat="-27.09992" lon="-52.61935"/>
<rtept lat="-27.09993" lon="-52.61935"/>
<rtept lat="-27.09994" lon="-52.61935"/>
<rtept lat="-27.09995" lon="-52.61935"/>
<rtept lat="-27.09995" lon="-52.61934"/>
<rtept lat="-27.09996" lon="-52.61934"/>
<rtept lat="-27.09997" lon="-52.61934"/>
<rtept lat="-27.09997" lon="-52.61933"/>
<rtept lat="-27.09998" lon="-52.61933"/>
<rtept lat="-27.09998" lon="-52.61932"/>
<rtept lat="-27.09999" lon="-52.61931"/>
<rtept lat="-27.09999" lon="-52.6193"/>
<rtept lat="-27.1" lon="-52.61929"/>
<rtept lat="-27.10025" lon="-52.61924"/>
<rtept lat="-27.1005" lon="-52.61918"/>
<rtept lat="-27.10083" lon="-52.61908"/>
<rtept lat="-27.10115" lon="-52.61897"/>
<rtept lat="-27.10121" lon="-52.61896"/>
<rtept lat="-27.10127" lon="-52.61895"/>
<rtept lat="-27.10151" lon="-52.61889"/>
<rtept lat="-27.10176" lon="-52.61883"/>
<rtept lat="-27.10193" lon="-52.61878"/>
<rtept lat="-27.1021" lon="-52.61873"/>
<rtept lat="-27.10244" lon="-52.61863"/>
<rtept lat="-27.10244" lon="-52.61864"/>
<rtept lat="-27.10245" lon="-52.61864"/>
<rtept lat="-27.10245" lon="-52.61865"/>
<rtept lat="-27.10246" lon="-52.61865"/>
<rtept lat="-27.10247" lon="-52.61865"/>
<rtept lat="-27.10248" lon="-52.61865"/>
<rtept lat="-27.10249" lon="-52.61865"/>
<rtept lat="-27.1025" lon="-52.61865"/>
<rtept lat="-27.10251" lon="-52.61865"/>
<rtept lat="-27.10252" lon="-52.61865"/>
<rtept lat="-27.10252" lon="-52.61864"/>
<rtept lat="-27.10253" lon="-52.61864"/>
<rtept lat="-27.10253" lon="-52.61863"/>
<rtept lat="-27.10254" lon="-52.61863"/>
<rtept lat="-27.10254" lon="-52.61862"/>
<rtept lat="-27.10255" lon="-52.61862"/>
<rtept lat="-27.10255" lon="-52.61861"/>
<rtept lat="-27.10284" lon="-52.61853"/>
<rtept lat="-27.10313" lon="-52.61844"/>
<rtept lat="-27.10341" lon="-52.61836"/>
<rtept lat="-27.10369" lon="-52.61828"/>
<rtept lat="-27.10373" lon="-52.61827"/>
<rtept lat="-27.10378" lon="-52.61826"/>
<rtept lat="-27.10402" lon="-52.6182"/>
<rtept lat="-27.10474" lon="-52.61802"/>
<rtept lat="-27.10511" lon="-52.61793"/>
<rtept lat="-27.10546" lon="-52.61785"/>
<rtept lat="-27.10547" lon="-52.61785"/>
<rtept lat="-27.10547" lon="-52.61786"/>
<rtept lat="-27.10548" lon="-52.61786"/>
<rtept lat="-27.10549" lon="-52.61786"/>
<rtept lat="-27.1055" lon="-52.61786"/>
<rtept lat="-27.10551" lon="-52.61786"/>
<rtept lat="-27.10552" lon="-52.61786"/>
<rtept lat="-27.10553" lon="-52.61786"/>
<rtept lat="-27.10554" lon="-52.61786"/>
<rtept lat="-27.10555" lon="-52.61785"/>
<rtept lat="-27.10556" lon="-52.61785"/>
<rtept lat="-27.10556" lon="-52.61784"/>
<rtept lat="-27.10557" lon="-52.61784"/>
<rtept lat="-27.10558" lon="-52.61783"/>
<rtept lat="-27.10605" lon="-52.61769"/>
<rtept lat="-27.1061" lon="-52.61768"/>
<rtept lat="-27.10653" lon="-52.61756"/>
<rtept lat="-27.10666" lon="-52.61752"/>
<rtept lat="-27.10679" lon="-52.61748"/>
<rtept lat="-27.10701" lon="-52.6174"/>
<rtept lat="-27.10723" lon="-52.61735"/>
<rtept lat="-27.10724" lon="-52.61735"/>
<rtept lat="-27.10725" lon="-52.61736"/>
<rtept lat="-27.10726" lon="-52.61736"/>
<rtept lat="-27.10727" lon="-52.61736"/>
<rtept lat="-27.10728" lon="-52.61736"/>
<rtept lat="-27.10729" lon="-52.61736"/>
<rtept lat="-27.10729" lon="-52.61735"/>
<rtept lat="-27.1073" lon="-52.61735"/>
<rtept lat="-27.10731" lon="-52.61734"/>
<rtept lat="-27.10732" lon="-52.61734"/>
<rtept lat="-27.10732" lon="-52.61733"/>
<rtept lat="-27.10732" lon="-52.61732"/>
<rtept lat="-27.10733" lon="-52.61732"/>
<rtept lat="-27.10733" lon="-52.61731"/>
<rtept lat="-27.10733" lon="-52.6173"/>
<rtept lat="-27.10734" lon="-52.6173"/>
<rtept lat="-27.10734" lon="-52.61729"/>
<rtept lat="-27.10734" lon="-52.61728"/>
<rtept lat="-27.10734" lon="-52.61727"/>
<rtept lat="-27.10734" lon="-52.61726"/>
<rtept lat="-27.10733" lon="-52.61726"/>
<rtept lat="-27.10733" lon="-52.61725"/>
<rtept lat="-27.10733" lon="-52.61724"/>
<rtept lat="-27.10732" lon="-52.61723"/>
<rtept lat="-27.10732" lon="-52.61722"/>
<rtept lat="-27.10731" lon="-52.61722"/>
<rtept lat="-27.10731" lon="-52.61721"/>
<rtept lat="-27.1073" lon="-52.61721"/>
<rtept lat="-27.10729" lon="-52.61721"/>
<rtept lat="-27.10729" lon="-52.6172"/>
<rtept lat="-27.10728" lon="-52.6172"/>
<rtept lat="-27.10718" lon="-52.61654"/>
<rtept lat="-27.10715" lon="-52.61642"/>
<rtept lat="-27.10714" lon="-52.61639"/>
<rtept lat="-27.1071" lon="-52.61624"/>
<rtept lat="-27.10707" lon="-52.61606"/>
<rtept lat="-27.10703" lon="-52.61588"/>
<rtept lat="-27.10702" lon="-52.61583"/>
<rtept lat="-27.10701" lon="-52.61578"/>
<rtept lat="-27.10693" lon="-52.61543"/>
<rtept lat="-27.10685" lon="-52.61507"/>
<rtept lat="-27.10682" lon="-52.61488"/>
<rtept lat="-27.10678" lon="-52.6147"/>
<rtept lat="-27.10669" lon="-52.61429"/>
<rtept lat="-27.1066" lon="-52.61388"/>
<rtept lat="-27.10658" lon="-52.61379"/>
<rtept lat="-27.10656" lon="-52.6137"/>
<rtept lat="-27.1065" lon="-52.61371"/>
</rte>
</gpx>
