<?xml version="1.0" encoding="UTF-8"?>
<gpx version="1.1" creator="TranCity" xmlns="http://www.topografix.com/GPX/1/1">
<rte><name>L103 H. Regional</name>
<rtept lat="-27.09804" lon="-52.61821"/>
<rtept lat="-27.09701" lon="-52.61847"/>
<rtept lat="-27.0958" lon="-52.61882"/>
<rtept lat="-27.09569" lon="-52.61828"/>
<rtept lat="-27.09554" lon="-52.61774"/>
<rtept lat="-27.0954" lon="-52.61698"/>
<rtept lat="-27.09541" lon="-52.61695"/>
<rtept lat="-27.09613" lon="-52.61678"/>
<rtept lat="-27.09659" lon="-52.61666"/>
<rtept lat="-27.09669" lon="-52.61715"/>
<rtept lat="-27.09701" lon="-52.61847"/>
<rtept lat="-27.0958" lon="-52.61882"/>
<rtept lat="-27.09569" lon="-52.61828"/>
<rtept lat="-27.09554" lon="-52.61774"/>
<rtept lat="-27.0954" lon="-52.61698"/>
<rtept lat="-27.09541" lon="-52.61689"/>
<rtept lat="-27.09536" lon="-52.61682"/>
<rtept lat="-27.09529" lon="-52.61683"/>
<rtept lat="-27.09526" lon="-52.61687"/>
<rtept lat="-27.09491" lon="-52.61696"/>
<rtept lat="-27.09437" lon="-52.61713"/>
<rtept lat="-27.09412" lon="-52.61597"/>
<rtept lat="-27.09409" lon="-52.61581"/>
<rtept lat="-27.09381" lon="-52.6159"/>
<rtept lat="-27.09349" lon="-52.61449"/>
<rtept lat="-27.09334" lon="-52.61388"/>
<rtept lat="-27.09337" lon="-52.61384"/>
<rtept lat="-27.09335" lon="-52.6138"/>
<rtept lat="-27.0933" lon="-52.61382"/>
<rtept lat="-27.0933" lon="-52.61384"/>
<rtept lat="-27.09232" lon="-52.61411"/>
<rtept lat="-27.09147" lon="-52.61437"/>
<rtept lat="-27.09099" lon="-52.6145"/>
<rtept lat="-27.09068" lon="-52.61312"/>
<rtept lat="-27.09004" lon="-52.61324"/>
<rtept lat="-27.08954" lon="-52.61337"/>
<rtept lat="-27.09004" lon="-52.61324"/>
<rtept lat="-27.09068" lon="-52.61312"/>
<rtept lat="-27.09014" lon="-52.61096"/>
<rtept lat="-27.09001" lon="-52.61034"/>
<rtept lat="-27.09006" lon="-52.61031"/>
<rtept lat="-27.09005" lon="-52.61024"/>
<rtept lat="-27.09" lon="-52.61021"/>
<rtept lat="-27.08995" lon="-52.61026"/>
<rtept lat="-27.08995" lon="-52.61029"/>
<rtept lat="-27.08859" lon="-52.61065"/>
<rtept lat="-27.08801" lon="-52.61084"/>
<rtept lat="-27.08773" lon="-52.61095"/>
<rtept lat="-27.08757" lon="-52.61186"/>
</rte>
</gpx>
