<?xml version="1.0" encoding="UTF-8"?>
<gpx version="1.1" creator="TranCity" xmlns="http://www.topografix.com/GPX/1/1">
<rte><name>L105 Rota Teste</name>
<rtept lat="-27.11393" lon="-52.59795"/>
<rtept lat="-27.11394" lon="-52.598"/>
<rtept lat="-27.11401" lon="-52.59834"/>
<rtept lat="-27.11409" lon="-52.59869"/>
<rtept lat="-27.11417" lon="-52.59904"/>
<rtept lat="-27.11427" lon="-52.59958"/>
<rtept lat="-27.11438" lon="-52.60011"/>
<rtept lat="-27.1144" lon="-52.60019"/>
<rtept lat="-27.11442" lon="-52.60027"/>
<rtept lat="-27.11403" lon="-52.60115"/>
<rtept lat="-27.11394" lon="-52.60133"/>
<rtept lat="-27.11377" lon="-52.60164"/>
<rtept lat="-27.11373" lon="-52.60168"/>
<rtept lat="-27.1137" lon="-52.60172"/>
<rtept lat="-27.11365" lon="-52.60177"/>
<rtept lat="-27.11346" lon="-52.60199"/>
<rtept lat="-27.11263" lon="-52.60289"/>
<rtept lat="-27.11179" lon="-52.6038"/>
<rtept lat="-27.11154" lon="-52.6041"/>
<rtept lat="-27.11132" lon="-52.60436"/>
<rtept lat="-27.11134" lon="-52.60436"/>
<rtept lat="-27.11136" lon="-52.60436"/>
<rtept lat="-27.11141" lon="-52.60435"/>
<rtept lat="-27.11145" lon="-52.60435"/>
<rtept lat="-27.11149" lon="-52.60434"/>
<rtept lat="-27.11157" lon="-52.60433"/>
<rtept lat="-27.11166" lon="-52.60431"/>
<rtept lat="-27.11174" lon="-52.60429"/>
<rtept lat="-27.11213" lon="-52.60419"/>
<rtept lat="-27.11218" lon="-52.60418"/>
<rtept lat="-27.11229" lon="-52.60413"/>
<rtept lat="-27.11293" lon="-52.60395"/>
<rtept lat="-27.11299" lon="-52.60393"/>
<rtept lat="-27.11366" lon="-52.60373"/>
<rtept lat="-27.11398" lon="-52.60364"/>
<rtept lat="-27.11417" lon="-52.60358"/>
<rtept lat="-27.11469" lon="-52.60343"/>
<rtept lat="-27.11512" lon="-52.60337"/>
<rtept lat="-27.11631" lon="-52.60304"/>
<rtept lat="-27.11622" lon="-52.60263"/>
<rtept lat="-27.11621" lon="-52.60257"/>
<rtept lat="-27.11619" lon="-52.60245"/>
<rtept lat="-27.11618" lon="-52.60243"/>
<rtept lat="-27.11611" lon="-52.6021"/>
<rtept lat="-27.11604" lon="-52.60178"/>
<rtept lat="-27.11596" lon="-52.60146"/>
<rtept lat="-27.11589" lon="-52.60114"/>
<rtept lat="-27.11582" lon="-52.60081"/>
<rtept lat="-27.11571" lon="-52.60031"/>
<rtept lat="-27.1156" lon="-52.5998"/>
<rtept lat="-27.11548" lon="-52.59926"/>
<rtept lat="-27.11536" lon="-52.59872"/>
<rtept lat="-27.1152" lon="-52.59804"/>
<rtept lat="-27.11504" lon="-52.59735"/>
<rtept lat="-27.11448" lon="-52.5975"/>
<rtept lat="-27.11445" lon="-52.5975"/>
<rtept lat="-27.11397" lon="-52.59763"/>
</rte>
</gpx>
