<?xml version="1.0" encoding="UTF-8"?>
<gpx version="1.1" creator="TranCity" xmlns="http://www.topografix.com/GPX/1/1">
<rte><name>L101 Centro/Ecoparque</name>
<rtept lat="-27.10616" lon="-52.61188"/>
<rtept lat="-27.10615" lon="-52.61182"/>
<rtept lat="-27.10613" lon="-52.61176"/>
<rtept lat="-27.10607" lon="-52.61148"/>
<rtept lat="-27.106" lon="-52.61113"/>
<rtept lat="-27.10592" lon="-52.61079"/>
<rtept lat="-27.10587" lon="-52.61054"/>
<rtept lat="-27.10585" lon="-52.61045"/>
<rtept lat="-27.10585" lon="-52.61044"/>
<rtept lat="-27.10585" lon="-52.61043"/>
<rtept lat="-27.10586" lon="-52.61042"/>
<rtept lat="-27.10586" lon="-52.61041"/>
<rtept lat="-27.10586" lon="-52.6104"/>
<rtept lat="-27.10586" lon="-52.61039"/>
<rtept lat="-27.10585" lon="-52.61039"/>
<rtept lat="-27.10585" lon="-52.61038"/>
<rtept lat="-27.10585" lon="-52.61037"/>
<rtept lat="-27.10584" lon="-52.61037"/>
<rtept lat="-27.10584" lon="-52.61036"/>
<rtept lat="-27.10583" lon="-52.61036"/>
<rtept lat="-27.10583" lon="-52.61035"/>
<rtept lat="-27.10582" lon="-52.61035"/>
<rtept lat="-27.10582" lon="-52.61034"/>
<rtept lat="-27.10581" lon="-52.61034"/>
<rtept lat="-27.1058" lon="-52.61034"/>
<rtept lat="-27.10579" lon="-52.61034"/>
<rtept lat="-27.10578" lon="-52.61034"/>
<rtept lat="-27.10577" lon="-52.61034"/>
<rtept lat="-27.10577" lon="-52.61035"/>
<rtept lat="-27.10576" lon="-52.61035"/>
<rtept lat="-27.10576" lon="-52.61036"/>
<rtept lat="-27.10575" lon="-52.61036"/>
<rtept lat="-27.10575" lon="-52.61037"/>
<rtept lat="-27.10574" lon="-52.61037"/>
<rtept lat="-27.10574" lon="-52.61038"/>
<rtept lat="-27.10539" lon="-52.61046"/>
<rtept lat="-27.10502" lon="-52.61054"/>
<rtept lat="-27.10488" lon="-52.61059"/>
<rtept lat="-27.10474" lon="-52.61063"/>
<rtept lat="-27.10438" lon="-52.61073"/>
<rtept lat="-27.10403" lon="-52.61085"/>
<rtept lat="-27.10402" lon="-52.61085"/>
<rtept lat="-27.10402" lon="-52.61084"/>
<rtept lat="-27.10401" lon="-52.61084"/>
<rtept lat="-27.104" lon="-52.61084"/>
<rtept lat="-27.104" lon="-52.61083"/>
<rtept lat="-27.10399" lon="-52.61083"/>
<rtept lat="-27.10398" lon="-52.61083"/>
<rtept lat="-27.10397" lon="-52.61083"/>
<rtept lat="-27.10397" lon="-52.61084"/>
<rtept lat="-27.10396" lon="-52.61084"/>
<rtept lat="-27.10395" lon="-52.61084"/>
<rtept lat="-27.10395" lon="-52.61085"/>
<rtept lat="-27.10394" lon="-52.61085"/>
<rtept lat="-27.10394" lon="-52.61086"/>
<rtept lat="-27.10393" lon="-52.61086"/>
<rtept lat="-27.10393" lon="-52.61087"/>
<rtept lat="-27.10392" lon="-52.61087"/>
<rtept lat="-27.10392" lon="-52.61088"/>
<rtept lat="-27.10355" lon="-52.61097"/>
<rtept lat="-27.10317" lon="-52.61107"/>
<rtept lat="-27.10272" lon="-52.61119"/>
<rtept lat="-27.10226" lon="-52.61131"/>
<rtept lat="-27.10225" lon="-52.61131"/>
<rtept lat="-27.10225" lon="-52.6113"/>
<rtept lat="-27.10224" lon="-52.6113"/>
<rtept lat="-27.10223" lon="-52.6113"/>
<rtept lat="-27.10222" lon="-52.6113"/>
<rtept lat="-27.10221" lon="-52.6113"/>
<rtept lat="-27.1022" lon="-52.6113"/>
<rtept lat="-27.10219" lon="-52.6113"/>
<rtept lat="-27.10218" lon="-52.6113"/>
<rtept lat="-27.10218" lon="-52.61131"/>
<rtept lat="-27.10217" lon="-52.61131"/>
<rtept lat="-27.10216" lon="-52.61131"/>
<rtept lat="-27.10216" lon="-52.61132"/>
<rtept lat="-27.10215" lon="-52.61132"/>
<rtept lat="-27.10215" lon="-52.61133"/>
<rtept lat="-27.10214" lon="-52.61133"/>
<rtept lat="-27.10214" lon="-52.61134"/>
<rtept lat="-27.10214" lon="-52.61135"/>
<rtept lat="-27.10213" lon="-52.61135"/>
<rtept lat="-27.10213" lon="-52.61136"/>
<rtept lat="-27.10213" lon="-52.61137"/>
<rtept lat="-27.10213" lon="-52.61138"/>
<rtept lat="-27.10165" lon="-52.61148"/>
<rtept lat="-27.10137" lon="-52.61155"/>
<rtept lat="-27.1011" lon="-52.61162"/>
<rtept lat="-27.101" lon="-52.61163"/>
<rtept lat="-27.10093" lon="-52.61164"/>
<rtept lat="-27.10081" lon="-52.61166"/>
<rtept lat="-27.10072" lon="-52.6117"/>
<rtept lat="-27.10041" lon="-52.6118"/>
<rtept lat="-27.10009" lon="-52.61191"/>
<rtept lat="-27.09992" lon="-52.61197"/>
<rtept lat="-27.09974" lon="-52.61203"/>
<rtept lat="-27.09973" lon="-52.61202"/>
<rtept lat="-27.09972" lon="-52.61202"/>
<rtept lat="-27.09972" lon="-52.61201"/>
<rtept lat="-27.09971" lon="-52.61201"/>
<rtept lat="-27.0997" lon="-52.61201"/>
<rtept lat="-27.0997" lon="-52.612"/>
<rtept lat="-27.09969" lon="-52.612"/>
<rtept lat="-27.09968" lon="-52.612"/>
<rtept lat="-27.09967" lon="-52.612"/>
<rtept lat="-27.09966" lon="-52.61201"/>
<rtept lat="-27.09965" lon="-52.61201"/>
<rtept lat="-27.09964" lon="-52.61201"/>
<rtept lat="-27.09964" lon="-52.61202"/>
<rtept lat="-27.09963" lon="-52.61202"/>
<rtept lat="-27.09963" lon="-52.61203"/>
<rtept lat="-27.09962" lon="-52.61203"/>
<rtept lat="-27.09962" lon="-52.61204"/>
<rtept lat="-27.09961" lon="-52.61204"/>
<rtept lat="-27.09961" lon="-52.61205"/>
<rtept lat="-27.09961" lon="-52.61206"/>
<rtept lat="-27.0996" lon="-52.61206"/>
<rtept lat="-27.09884" lon="-52.61227"/>
<rtept lat="-27.09879" lon="-52.61228"/>
<rtept lat="-27.09847" lon="-52.61238"/>
<rtept lat="-27.09847" lon="-52.61237"/>
<rtept lat="-27.09846" lon="-52.61237"/>
<rtept lat="-27.09846" lon="-52.61236"/>
<rtept lat="-27.09845" lon="-52.61236"/>
<rtept lat="-27.09845" lon="-52.61235"/>
<rtept lat="-27.09844" lon="-52.61235"/>
<rtept lat="-27.09843" lon="-52.61235"/>
<rtept lat="-27.09843" lon="-52.61234"/>
<rtept lat="-27.09842" lon="-52.61234"/>
<rtept lat="-27.09841" lon="-52.61234"/>
<rtept lat="-27.0984" lon="-52.61234"/>
<rtept lat="-27.0984" lon="-52.61235"/>
<rtept lat="-27.09839" lon="-52.61235"/>
<rtept lat="-27.09838" lon="-52.61235"/>
<rtept lat="-27.09837" lon="-52.61236"/>
<rtept lat="-27.09836" lon="-52.61237"/>
<rtept lat="-27.09835" lon="-52.61238"/>
<rtept lat="-27.09835" lon="-52.61239"/>
<rtept lat="-27.09834" lon="-52.6124"/>
<rtept lat="-27.09834" lon="-52.61241"/>
<rtept lat="-27.09782" lon="-52.61255"/>
<rtept lat="-27.09769" lon="-52.61259"/>
<rtept lat="-27.09746" lon="-52.61265"/>
<rtept lat="-27.09716" lon="-52.61273"/>
<rtept lat="-27.09707" lon="-52.61276"/>
<rtept lat="-27.0968" lon="-52.61284"/>
<rtept lat="-27.09669" lon="-52.61287"/>
<rtept lat="-27.09662" lon="-52.61289"/>
<rtept lat="-27.09628" lon="-52.613"/>
<rtept lat="-27.09619" lon="-52.61302"/>
<rtept lat="-27.0961" lon="-52.61304"/>
<rtept lat="-27.09601" lon="-52.61306"/>
<rtept lat="-27.09596" lon="-52.61308"/>
<rtept lat="-27.09594" lon="-52.61308"/>
<rtept lat="-27.09593" lon="-52.61309"/>
<rtept lat="-27.09592" lon="-52.6131"/>
<rtept lat="-27.09591" lon="-52.6131"/>
<rtept lat="-27.09589" lon="-52.61311"/>
<rtept lat="-27.09588" lon="-52.61312"/>
<rtept lat="-27.09587" lon="-52.61312"/>
<rtept lat="-27.09586" lon="-52.61311"/>
<rtept lat="-27.09585" lon="-52.61311"/>
<rtept lat="-27.09584" lon="-52.6131"/>
<rtept lat="-27.09583" lon="-52.6131"/>
<rtept lat="-27.09582" lon="-52.6131"/>
<rtept lat="-27.09581" lon="-52.6131"/>
<rtept lat="-27.09581" lon="-52.61311"/>
<rtept lat="-27.0958" lon="-52.61311"/>
<rtept lat="-27.09579" lon="-52.61311"/>
<rtept lat="-27.09579" lon="-52.61312"/>
<rtept lat="-27.09578" lon="-52.61312"/>
<rtept lat="-27.09578" lon="-52.61313"/>
<rtept lat="-27.09577" lon="-52.61313"/>
<rtept lat="-27.09577" lon="-52.61314"/>
<rtept lat="-27.09576" lon="-52.61314"/>
<rtept lat="-27.09576" lon="-52.61315"/>
<rtept lat="-27.09576" lon="-52.61316"/>
<rtept lat="-27.09576" lon="-52.61317"/>
<rtept lat="-27.09576" lon="-52.61318"/>
<rtept lat="-27.09575" lon="-52.61318"/>
<rtept lat="-27.09575" lon="-52.61319"/>
<rtept lat="-27.09576" lon="-52.6132"/>
<rtept lat="-27.0956" lon="-52.61323"/>
<rtept lat="-27.09531" lon="-52.61331"/>
<rtept lat="-27.0952" lon="-52.61334"/>
<rtept lat="-27.09461" lon="-52.61349"/>
<rtept lat="-27.09457" lon="-52.6135"/>
<rtept lat="-27.09453" lon="-52.6135"/>
<rtept lat="-27.09462" lon="-52.61385"/>
<rtept lat="-27.09471" lon="-52.6142"/>
<rtept lat="-27.09478" lon="-52.61456"/>
<rtept lat="-27.09485" lon="-52.61493"/>
<rtept lat="-27.09488" lon="-52.61504"/>
<rtept lat="-27.09496" lon="-52.61542"/>
<rtept lat="-27.09503" lon="-52.61573"/>
<rtept lat="-27.09511" lon="-52.61617"/>
<rtept lat="-27.09515" lon="-52.61635"/>
<rtept lat="-27.09519" lon="-52.61652"/>
<rtept lat="-27.09521" lon="-52.61662"/>
<rtept lat="-27.09523" lon="-52.6167"/>
<rtept lat="-27.09524" lon="-52.61675"/>
<rtept lat="-27.09526" lon="-52.61679"/>
<rtept lat="-27.09528" lon="-52.61684"/>
<rtept lat="-27.09526" lon="-52.61687"/>
<rtept lat="-27.09508" lon="-52.61691"/>
<rtept lat="-27.09491" lon="-52.61696"/>
<rtept lat="-27.09479" lon="-52.61701"/>
<rtept lat="-27.09462" lon="-52.61706"/>
<rtept lat="-27.09445" lon="-52.61711"/>
<rtept lat="-27.09437" lon="-52.61713"/>
<rtept lat="-27.09421" lon="-52.61716"/>
<rtept lat="-27.09413" lon="-52.61716"/>
<rtept lat="-27.09412" lon="-52.61716"/>
<rtept lat="-27.09411" lon="-52.61715"/>
<rtept lat="-27.0941" lon="-52.61715"/>
<rtept lat="-27.09409" lon="-52.61715"/>
<rtept lat="-27.09408" lon="-52.61715"/>
<rtept lat="-27.09407" lon="-52.61715"/>
<rtept lat="-27.09406" lon="-52.61715"/>
<rtept lat="-27.09405" lon="-52.61715"/>
<rtept lat="-27.09404" lon="-52.61716"/>
<rtept lat="-27.09403" lon="-52.61716"/>
<rtept lat="-27.09403" lon="-52.61717"/>
<rtept lat="-27.09402" lon="-52.61717"/>
<rtept lat="-27.09402" lon="-52.61718"/>
<rtept lat="-27.09401" lon="-52.61718"/>
<rtept lat="-27.09401" lon="-52.61719"/>
<rtept lat="-27.09401" lon="-52.6172"/>
<rtept lat="-27.094" lon="-52.6172"/>
<rtept lat="-27.094" lon="-52.61721"/>
<rtept lat="-27.094" lon="-52.61722"/>
<rtept lat="-27.094" lon="-52.61723"/>
<rtept lat="-27.094" lon="-52.61724"/>
<rtept lat="-27.09378" lon="-52.61727"/>
<rtept lat="-27.09355" lon="-52.61731"/>
<rtept lat="-27.09331" lon="-52.61737"/>
<rtept lat="-27.09306" lon="-52.61744"/>
<rtept lat="-27.09287" lon="-52.61749"/>
<rtept lat="-27.09252" lon="-52.61757"/>
<rtept lat="-27.09236" lon="-52.61762"/>
<rtept lat="-27.09204" lon="-52.61772"/>
<rtept lat="-27.09167" lon="-52.61781"/>
<rtept lat="-27.09098" lon="-52.618"/>
<rtept lat="-27.09047" lon="-52.61815"/>
<rtept lat="-27.08995" lon="-52.6183"/>
<rtept lat="-27.08969" lon="-52.61838"/>
<rtept lat="-27.08942" lon="-52.61845"/>
<rtept lat="-27.08917" lon="-52.61851"/>
<rtept lat="-27.08891" lon="-52.61857"/>
<rtept lat="-27.08841" lon="-52.61872"/>
<rtept lat="-27.08839" lon="-52.61873"/>
<rtept lat="-27.0879" lon="-52.61888"/>
<rtept lat="-27.08772" lon="-52.61894"/>
<rtept lat="-27.08756" lon="-52.61896"/>
<rtept lat="-27.08729" lon="-52.61905"/>
<rtept lat="-27.08725" lon="-52.61906"/>
<rtept lat="-27.08694" lon="-52.61914"/>
</rte>
</gpx>
