<?xml version="1.0" encoding="UTF-8"?>
<gpx version="1.1" creator="TranCity" xmlns="http://www.topografix.com/GPX/1/1">
<rte><name>L102 Efapi</name>
<rtept lat="-27.09804" lon="-52.61821"/>
<rtept lat="-27.09701" lon="-52.61847"/>
<rtept lat="-27.09455" lon="-52.61919"/>
<rtept lat="-27.09454" lon="-52.61928"/>
<rtept lat="-27.09485" lon="-52.62072"/>
<rtept lat="-27.09537" lon="-52.62055"/>
<rtept lat="-27.09604" lon="-52.6204"/>
<rtept lat="-27.09627" lon="-52.62142"/>
<rtept lat="-27.09638" lon="-52.62183"/>
<rtept lat="-27.09654" lon="-52.62215"/>
<rtept lat="-27.09673" lon="-52.62308"/>
<rtept lat="-27.09719" lon="-52.62295"/>
<rtept lat="-27.09673" lon="-52.62308"/>
<rtept lat="-27.09668" lon="-52.6233"/>
<rtept lat="-27.09654" lon="-52.6237"/>
<rtept lat="-27.09615" lon="-52.62434"/>
<rtept lat="-27.09514" lon="-52.62585"/>
<rtept lat="-27.09478" lon="-52.62638"/>
<rtept lat="-27.09463" lon="-52.62661"/>
<rtept lat="-27.09498" lon="-52.62703"/>
<rtept lat="-27.09523" lon="-52.62742"/>
<rtept lat="-27.09541" lon="-52.62794"/>
<rtept lat="-27.0958" lon="-52.62891"/>
<rtept lat="-27.09586" lon="-52.62907"/>
<rtept lat="-27.09601" lon="-52.62953"/>
<rtept lat="-27.09596" lon="-52.62998"/>
<rtept lat="-27.09589" lon="-52.63006"/>
<rtept lat="-27.09589" lon="-52.63016"/>
<rtept lat="-27.09594" lon="-52.63025"/>
<rtept lat="-27.09595" lon="-52.63041"/>
<rtept lat="-27.0959" lon="-52.63067"/>
<rtept lat="-27.09555" lon="-52.6316"/>
<rtept lat="-27.09526" lon="-52.63228"/>
<rtept lat="-27.09485" lon="-52.63379"/>
<rtept lat="-27.09456" lon="-52.63492"/>
<rtept lat="-27.09447" lon="-52.63532"/>
<rtept lat="-27.09444" lon="-52.63565"/>
<rtept lat="-27.09443" lon="-52.63591"/>
<rtept lat="-27.09447" lon="-52.63633"/>
<rtept lat="-27.09452" lon="-52.63659"/>
<rtept lat="-27.09472" lon="-52.63706"/>
<rtept lat="-27.09466" lon="-52.63716"/>
<rtept lat="-27.09467" lon="-52.63727"/>
<rtept lat="-27.09473" lon="-52.63735"/>
<rtept lat="-27.09483" lon="-52.63738"/>
<rtept lat="-27.09491" lon="-52.63733"/>
<rtept lat="-27.09496" lon="-52.63721"/>
<rtept lat="-27.09493" lon="-52.6371"/>
<rtept lat="-27.09486" lon="-52.63703"/>
<rtept lat="-27.09479" lon="-52.63702"/>
<rtept lat="-27.09471" lon="-52.63707"/>
<rtept lat="-27.09466" lon="-52.63717"/>
<rtept lat="-27.09467" lon="-52.63728"/>
<rtept lat="-27.09474" lon="-52.63736"/>
<rtept lat="-27.09483" lon="-52.63738"/>
<rtept lat="-27.09524" lon="-52.63857"/>
<rtept lat="-27.09606" lon="-52.64086"/>
<rtept lat="-27.09601" lon="-52.64098"/>
<rtept lat="-27.09593" lon="-52.64104"/>
<rtept lat="-27.09542" lon="-52.64129"/>
<rtept lat="-27.09547" lon="-52.64138"/>
<rtept lat="-27.09535" lon="-52.64246"/>
<rtept lat="-27.09495" lon="-52.64516"/>
<rtept lat="-27.09491" lon="-52.64519"/>
<rtept lat="-27.09493" lon="-52.64524"/>
<rtept lat="-27.09494" lon="-52.64525"/>
<rtept lat="-27.09482" lon="-52.6461"/>
<rtept lat="-27.09477" lon="-52.64643"/>
<rtept lat="-27.09347" lon="-52.6462"/>
<rtept lat="-27.09313" lon="-52.64614"/>
<rtept lat="-27.09282" lon="-52.6482"/>
<rtept lat="-27.09283" lon="-52.64827"/>
<rtept lat="-27.09211" lon="-52.64843"/>
<rtept lat="-27.09185" lon="-52.6484"/>
<rtept lat="-27.09136" lon="-52.64833"/>
<rtept lat="-27.09104" lon="-52.64835"/>
<rtept lat="-27.09006" lon="-52.64857"/>
<rtept lat="-27.08975" lon="-52.64865"/>
<rtept lat="-27.08968" lon="-52.64877"/>
<rtept lat="-27.08969" lon="-52.64891"/>
<rtept lat="-27.08975" lon="-52.64903"/>
<rtept lat="-27.09033" lon="-52.64889"/>
<rtept lat="-27.09048" lon="-52.64897"/>
<rtept lat="-27.09054" lon="-52.64908"/>
<rtept lat="-27.09053" lon="-52.64923"/>
<rtept lat="-27.09039" lon="-52.64942"/>
<rtept lat="-27.09001" lon="-52.64975"/>
<rtept lat="-27.08874" lon="-52.65076"/>
<rtept lat="-27.08859" lon="-52.65091"/>
<rtept lat="-27.08901" lon="-52.65133"/>
<rtept lat="-27.08921" lon="-52.65156"/>
<rtept lat="-27.08972" lon="-52.65236"/>
<rtept lat="-27.08979" lon="-52.65252"/>
<rtept lat="-27.08987" lon="-52.65286"/>
<rtept lat="-27.08995" lon="-52.65469"/>
<rtept lat="-27.08999" lon="-52.65643"/>
<rtept lat="-27.09115" lon="-52.65636"/>
<rtept lat="-27.09195" lon="-52.65635"/>
<rtept lat="-27.09217" lon="-52.65634"/>
<rtept lat="-27.09224" lon="-52.65607"/>
<rtept lat="-27.09217" lon="-52.65634"/>
<rtept lat="-27.09152" lon="-52.65637"/>
<rtept lat="-27.09115" lon="-52.65636"/>
<rtept lat="-27.09116" lon="-52.65795"/>
<rtept lat="-27.09161" lon="-52.65795"/>
<rtept lat="-27.0905" lon="-52.65913"/>
<rtept lat="-27.09012" lon="-52.65954"/>
<rtept lat="-27.09004" lon="-52.65957"/>
<rtept lat="-27.08975" lon="-52.65957"/>
<rtept lat="-27.08896" lon="-52.65952"/>
<rtept lat="-27.08905" lon="-52.66238"/>
<rtept lat="-27.08905" lon="-52.66341"/>
<rtept lat="-27.08908" lon="-52.6639"/>
<rtept lat="-27.08906" lon="-52.66419"/>
<rtept lat="-27.0891" lon="-52.66506"/>
<rtept lat="-27.08907" lon="-52.6653"/>
<rtept lat="-27.08906" lon="-52.66563"/>
<rtept lat="-27.089" lon="-52.66609"/>
<rtept lat="-27.089" lon="-52.66629"/>
<rtept lat="-27.08905" lon="-52.6666"/>
<rtept lat="-27.0891" lon="-52.66672"/>
<rtept lat="-27.08925" lon="-52.66673"/>
<rtept lat="-27.08931" lon="-52.6667"/>
<rtept lat="-27.08937" lon="-52.66663"/>
<rtept lat="-27.08937" lon="-52.66646"/>
<rtept lat="-27.08953" lon="-52.66635"/>
<rtept lat="-27.0897" lon="-52.66631"/>
<rtept lat="-27.08977" lon="-52.66626"/>
<rtept lat="-27.08984" lon="-52.66619"/>
<rtept lat="-27.0899" lon="-52.6661"/>
<rtept lat="-27.09039" lon="-52.66555"/>
<rtept lat="-27.09056" lon="-52.66547"/>
<rtept lat="-27.09064" lon="-52.66546"/>
<rtept lat="-27.09104" lon="-52.66566"/>
<rtept lat="-27.09131" lon="-52.66582"/>
<rtept lat="-27.09106" lon="-52.66529"/>
<rtept lat="-27.09101" lon="-52.66523"/>
<rtept lat="-27.09095" lon="-52.6652"/>
<rtept lat="-27.09104" lon="-52.66503"/>
</rte>
</gpx>
